CCSDS_OMM_VERS = 2.0
CREATION_DATE  = 
ORIGINATOR     = 

OBJECT_NAME    = STARLINK-36809
OBJECT_ID      = 2026-036AB
CENTER_NAME    = EARTH
REF_FRAME      = TEME
TIME_SYSTEM    = UTC
MEAN_ELEMENT_THEORY = SGP/SGP4

EPOCH          = 2026-03-15T22:00:01.999584
MEAN_MOTION    = 15.60914165
ECCENTRICITY   = .00018847
INCLINATION    = 42.9995
RA_OF_ASC_NODE = 211.8560
ARG_OF_PERICENTER = 278.1778
MEAN_ANOMALY   = 98.7751

EPHEMERIS_TYPE = 0
CLASSIFICATION_TYPE = U
NORAD_CAT_ID   = 67929
ELEMENT_SET_NO = 999
REV_AT_EPOCH   = 464
BSTAR          = -.24465727E-1
MEAN_MOTION_DOT = -.1866234E-1
MEAN_MOTION_DDOT = 0

CCSDS_OMM_VERS = 2.0
CREATION_DATE  = 
ORIGINATOR     = 

OBJECT_NAME    = STARLINK-36865
OBJECT_ID      = 2026-036AC
CENTER_NAME    = EARTH
REF_FRAME      = TEME
TIME_SYSTEM    = UTC
MEAN_ELEMENT_THEORY = SGP/SGP4

EPOCH          = 2026-03-15T22:00:01.999584
MEAN_MOTION    = 15.65536462
ECCENTRICITY   = .00016308
INCLINATION    = 42.9998
RA_OF_ASC_NODE = 211.6484
ARG_OF_PERICENTER = 286.2313
MEAN_ANOMALY   = 173.7431

EPHEMERIS_TYPE = 0
CLASSIFICATION_TYPE = U
NORAD_CAT_ID   = 67930
ELEMENT_SET_NO = 999
REV_AT_EPOCH   = 464
BSTAR          = -.20756006E-1
MEAN_MOTION_DOT = -.1898206E-1
MEAN_MOTION_DDOT = 0

CCSDS_OMM_VERS = 2.0
CREATION_DATE  = 
ORIGINATOR     = 

OBJECT_NAME    = STARLINK-36781
OBJECT_ID      = 2026-036AD
CENTER_NAME    = EARTH
REF_FRAME      = TEME
TIME_SYSTEM    = UTC
MEAN_ELEMENT_THEORY = SGP/SGP4

EPOCH          = 2026-03-15T22:00:01.999584
MEAN_MOTION    = 15.64937599
ECCENTRICITY   = .00016854
INCLINATION    = 42.9997
RA_OF_ASC_NODE = 211.6812
ARG_OF_PERICENTER = 287.2657
MEAN_ANOMALY   = 159.8503

EPHEMERIS_TYPE = 0
CLASSIFICATION_TYPE = U
NORAD_CAT_ID   = 67931
ELEMENT_SET_NO = 999
REV_AT_EPOCH   = 464
BSTAR          = -.21170275E-1
MEAN_MOTION_DOT = -.1890784E-1
MEAN_MOTION_DDOT = 0

CCSDS_OMM_VERS = 2.0
CREATION_DATE  = 
ORIGINATOR     = 

OBJECT_NAME    = STARLINK-36301
OBJECT_ID      = 2026-037A
CENTER_NAME    = EARTH
REF_FRAME      = TEME
TIME_SYSTEM    = UTC
MEAN_ELEMENT_THEORY = SGP/SGP4

EPOCH          = 2026-03-15T22:55:47.300448
MEAN_MOTION    = 15.82198604
ECCENTRICITY   = .00003769
INCLINATION    = 42.9979
RA_OF_ASC_NODE = 160.1778
ARG_OF_PERICENTER = 352.4773
MEAN_ANOMALY   = 7.6093

EPHEMERIS_TYPE = 0
CLASSIFICATION_TYPE = U
NORAD_CAT_ID   = 67932
ELEMENT_SET_NO = 999
REV_AT_EPOCH   = 424
BSTAR          = .23959904E-2
MEAN_MOTION_DOT = .541543E-2
MEAN_MOTION_DDOT = 0

CCSDS_OMM_VERS = 2.0
CREATION_DATE  = 
ORIGINATOR     = 

OBJECT_NAME    = STARLINK-36852
OBJECT_ID      = 2026-037B
CENTER_NAME    = EARTH
REF_FRAME      = TEME
TIME_SYSTEM    = UTC
MEAN_ELEMENT_THEORY = SGP/SGP4

EPOCH          = 2026-03-15T22:00:01.999584
MEAN_MOTION    = 15.73347502
ECCENTRICITY   = .00014344
INCLINATION    = 42.9996
RA_OF_ASC_NODE = 160.4868
ARG_OF_PERICENTER = 282.3821
MEAN_ANOMALY   = 188.6405

EPHEMERIS_TYPE = 0
CLASSIFICATION_TYPE = U
NORAD_CAT_ID   = 67933
ELEMENT_SET_NO = 999
REV_AT_EPOCH   = 419
BSTAR          = -.15724994E-1
MEAN_MOTION_DOT = -.1984185E-1
MEAN_MOTION_DDOT = 0

CCSDS_OMM_VERS = 2.0
CREATION_DATE  = 
ORIGINATOR     = 

OBJECT_NAME    = STARLINK-36861
OBJECT_ID      = 2026-037C
CENTER_NAME    = EARTH
REF_FRAME      = TEME
TIME_SYSTEM    = UTC
MEAN_ELEMENT_THEORY = SGP/SGP4

EPOCH          = 2026-03-15T22:53:37.484448
MEAN_MOTION    = 15.82174451
ECCENTRICITY   = .00010139
INCLINATION    = 42.9984
RA_OF_ASC_NODE = 160.1667
ARG_OF_PERICENTER = 279.7186
MEAN_ANOMALY   = 80.3572

EPHEMERIS_TYPE = 0
CLASSIFICATION_TYPE = U
NORAD_CAT_ID   = 67934
ELEMENT_SET_NO = 999
REV_AT_EPOCH   = 424
BSTAR          = .20163946E-2
MEAN_MOTION_DOT = .450232E-2
MEAN_MOTION_DDOT = 0

CCSDS_OMM_VERS = 2.0
CREATION_DATE  = 
ORIGINATOR     = 

OBJECT_NAME    = STARLINK-36860
OBJECT_ID      = 2026-037D
CENTER_NAME    = EARTH
REF_FRAME      = TEME
TIME_SYSTEM    = UTC
MEAN_ELEMENT_THEORY = SGP/SGP4

EPOCH          = 2026-03-15T22:00:01.999584
MEAN_MOTION    = 15.78917598
ECCENTRICITY   = .00013526
INCLINATION    = 42.9994
RA_OF_ASC_NODE = 160.3944
ARG_OF_PERICENTER = 273.1034
MEAN_ANOMALY   = 234.8064

EPHEMERIS_TYPE = 0
CLASSIFICATION_TYPE = U
NORAD_CAT_ID   = 67935
ELEMENT_SET_NO = 999
REV_AT_EPOCH   = 419
BSTAR          = -.12414104E-1
MEAN_MOTION_DOT = -.196487E-1
MEAN_MOTION_DDOT = 0

CCSDS_OMM_VERS = 2.0
CREATION_DATE  = 
ORIGINATOR     = 

OBJECT_NAME    = STARLINK-36848
OBJECT_ID      = 2026-037E
CENTER_NAME    = EARTH
REF_FRAME      = TEME
TIME_SYSTEM    = UTC
MEAN_ELEMENT_THEORY = SGP/SGP4

EPOCH          = 2026-03-14T16:32:09.365856
MEAN_MOTION    = 15.81862945
ECCENTRICITY   = .00019559
INCLINATION    = 42.9972
RA_OF_ASC_NODE = 167.8849
ARG_OF_PERICENTER = 0.4471
MEAN_ANOMALY   = 359.6402

EPHEMERIS_TYPE = 0
CLASSIFICATION_TYPE = U
NORAD_CAT_ID   = 67936
ELEMENT_SET_NO = 999
REV_AT_EPOCH   = 404
BSTAR          = -.69877644E-3
MEAN_MOTION_DOT = -.144226E-2
MEAN_MOTION_DDOT = 0

CCSDS_OMM_VERS = 2.0
CREATION_DATE  = 
ORIGINATOR     = 

OBJECT_NAME    = STARLINK-36370
OBJECT_ID      = 2026-037F
CENTER_NAME    = EARTH
REF_FRAME      = TEME
TIME_SYSTEM    = UTC
MEAN_ELEMENT_THEORY = SGP/SGP4

EPOCH          = 2026-03-15T22:51:50.383872
MEAN_MOTION    = 15.81324946
ECCENTRICITY   = .00007089
INCLINATION    = 42.9981
RA_OF_ASC_NODE = 160.1562
ARG_OF_PERICENTER = 273.8080
MEAN_ANOMALY   = 86.2710

EPHEMERIS_TYPE = 0
CLASSIFICATION_TYPE = U
NORAD_CAT_ID   = 67937
ELEMENT_SET_NO = 999
REV_AT_EPOCH   = 424
BSTAR          = .2395493E-2
MEAN_MOTION_DOT = .518449E-2
MEAN_MOTION_DDOT = 0

CCSDS_OMM_VERS = 2.0
CREATION_DATE  = 
ORIGINATOR     = 

OBJECT_NAME    = STARLINK-36371
OBJECT_ID      = 2026-037G
CENTER_NAME    = EARTH
REF_FRAME      = TEME
TIME_SYSTEM    = UTC
MEAN_ELEMENT_THEORY = SGP/SGP4

EPOCH          = 2026-03-15T22:49:18.575616
MEAN_MOTION    = 15.82184555
ECCENTRICITY   = .00007562
INCLINATION    = 42.9985
RA_OF_ASC_NODE = 160.1410
ARG_OF_PERICENTER = 252.8959
MEAN_ANOMALY   = 107.1830

EPHEMERIS_TYPE = 0
CLASSIFICATION_TYPE = U
NORAD_CAT_ID   = 67938
ELEMENT_SET_NO = 999
REV_AT_EPOCH   = 424
BSTAR          = .2253496E-2
MEAN_MOTION_DOT = .50686E-2
MEAN_MOTION_DDOT = 0

CCSDS_OMM_VERS = 2.0
CREATION_DATE  = 
ORIGINATOR     = 

OBJECT_NAME    = STARLINK-36246
OBJECT_ID      = 2026-037H
CENTER_NAME    = EARTH
REF_FRAME      = TEME
TIME_SYSTEM    = UTC
MEAN_ELEMENT_THEORY = SGP/SGP4

EPOCH          = 2026-03-15T22:00:01.999584
MEAN_MOTION    = 15.77238713
ECCENTRICITY   = .00012575
INCLINATION    = 42.9996
RA_OF_ASC_NODE = 160.3652
ARG_OF_PERICENTER = 272.8597
MEAN_ANOMALY   = 246.4061

EPHEMERIS_TYPE = 0
CLASSIFICATION_TYPE = U
NORAD_CAT_ID   = 67939
ELEMENT_SET_NO = 999
REV_AT_EPOCH   = 411
BSTAR          = -.13351772E-1
MEAN_MOTION_DOT = -.195848E-1
MEAN_MOTION_DDOT = 0

CCSDS_OMM_VERS = 2.0
CREATION_DATE  = 
ORIGINATOR     = 

OBJECT_NAME    = STARLINK-36907
OBJECT_ID      = 2026-037J
CENTER_NAME    = EARTH
REF_FRAME      = TEME
TIME_SYSTEM    = UTC
MEAN_ELEMENT_THEORY = SGP/SGP4

EPOCH          = 2026-03-15T16:41:20.571072
MEAN_MOTION    = 15.82094769
ECCENTRICITY   = .00017144
INCLINATION    = 42.9981
RA_OF_ASC_NODE = 161.6639
ARG_OF_PERICENTER = 261.9452
MEAN_ANOMALY   = 98.1225

EPHEMERIS_TYPE = 0
CLASSIFICATION_TYPE = U
NORAD_CAT_ID   = 67940
ELEMENT_SET_NO = 999
REV_AT_EPOCH   = 420
BSTAR          = .1143233E-2
MEAN_MOTION_DOT = .248129E-2
MEAN_MOTION_DDOT = 0

