STARLINK-36809          
1 67929U 26036AB  26074.91668981 -.01866234  00000+0 -24466-1 0  9991
2 67929  42.9995 211.8560 0001884 278.1778  98.7751 15.60914165  4646
STARLINK-36865          
1 67930U 26036AC  26074.91668981 -.01898206  00000+0 -20756-1 0  9995
2 67930  42.9998 211.6484 0001630 286.2313 173.7431 15.65536462  4642
STARLINK-36781          
1 67931U 26036AD  26074.91668981 -.01890784  00000+0 -21170-1 0  9990
2 67931  42.9997 211.6812 0001685 287.2657 159.8503 15.64937599  4649
STARLINK-36301          
1 67932U 26037A   26074.95540857  .00541543  00000+0  23960-2 0  9990
2 67932  42.9979 160.1778 0000376 352.4773   7.6093 15.82198604  4245
STARLINK-36852          
1 67933U 26037B   26074.91668981 -.01984185  00000+0 -15725-1 0  9991
2 67933  42.9996 160.4868 0001434 282.3821 188.6405 15.73347502  4193
STARLINK-36861          
1 67934U 26037C   26074.95390607  .00450232  00000+0  20164-2 0  9995
2 67934  42.9984 160.1667 0001013 279.7186  80.3572 15.82174451  4242
STARLINK-36860          
1 67935U 26037D   26074.91668981 -.01964870  00000+0 -12414-1 0  9994
2 67935  42.9994 160.3944 0001352 273.1034 234.8064 15.78917598  4198
STARLINK-36848          
1 67936U 26037E   26073.68899729 -.00144226  00000+0 -69878-3 0  9996
2 67936  42.9972 167.8849 0001955   0.4471 359.6402 15.81862945  4041
STARLINK-36370          
1 67937U 26037F   26074.95266648  .00518449  00000+0  23955-2 0  9991
2 67937  42.9981 160.1562 0000708 273.8080  86.2710 15.81324946  4248
STARLINK-36371          
1 67938U 26037G   26074.95090944  .00506860  00000+0  22535-2 0  9993
2 67938  42.9985 160.1410 0000756 252.8959 107.1830 15.82184555  4247
STARLINK-36246          
1 67939U 26037H   26074.91668981 -.01958480  00000+0 -13352-1 0  9990
2 67939  42.9996 160.3652 0001257 272.8597 246.4061 15.77238713  4116
STARLINK-36907          
1 67940U 26037J   26074.69537698  .00248129  00000+0  11432-2 0  9994
2 67940  42.9981 161.6639 0001714 261.9452  98.1225 15.82094769  4209
